NORAD_CAT_ID,OBJECT_NAME,OBJECT_TYPE,EPOCH,MEAN_MOTION,ECCENTRICITY,INCLINATION,RA_OF_ASC_NODE,ARG_OF_PERICENTER,MEAN_ANOMALY,BSTAR,MEAN_MOTION_DOT,MEAN_MOTION_DDOT,TLE_LINE0,TLE_LINE1,TLE_LINE2,SEMIMAJOR_AXIS,PERIOD,APOGEE,PERIGEE,DECAYED
54182.0,STARLINK-5231,PAYLOAD,2023-02-23 14:00:01,15.49862297,9.52e-05,53.2154,280.0625,104.5154,311.7867,0.00057822,0.00032475,0.0,0 STARLINK-5231,1 54182U 22141AB  23054.58334491  .00032475  00000-0  57822-3 0  9999,2 54182  53.2154 280.0625 0000952 104.5154 311.7867 15.49862297  1301,6795.266,92.911,417.777,416.484,0.0
54182.0,STARLINK-5231,PAYLOAD,2023-02-23 22:00:00,15.49885435,8.79e-05,53.2156,278.4713,90.1151,27.0914,1.9299e-06,-3.41e-06,0.0,0 STARLINK-5231,1 54182U 22141AB  23054.91667824 -.00000341  00000-0  19299-5 0  9991,2 54182  53.2156 278.4713 0000879  90.1151  27.0914 15.49885435  1306,6795.198,92.91,417.66,416.466,0.0
54182.0,STARLINK-5231,PAYLOAD,2023-02-24 14:00:01,15.49730664,0.0001212,53.216,275.283,104.7133,134.2765,-0.022741,-0.0117237,0.0,0 STARLINK-5231,1 54182U 22141AB  23055.58334491 -.01172370  00000-0 -22741-1 0  9992,2 54182  53.2160 275.2830 0001212 104.7133 134.2765 15.49730664 19048,6795.65,92.919,418.339,416.692,0.0
54182.0,STARLINK-5231,PAYLOAD,2023-02-24 22:00:00,15.49861038,6.35e-05,53.2161,273.692,80.6609,219.2388,0.00038966,0.00021707,0.0,0 STARLINK-5231,1 54182U 22141AB  23055.91667824  .00021707  00000-0  38966-3 0  9990,2 54182  53.2161 273.6920 0000635  80.6609 219.2388 15.49861038 19099,6795.269,92.912,417.566,416.703,0.0
54182.0,STARLINK-5231,PAYLOAD,2023-02-25 01:21:16,15.49876328,7.28e-05,53.2173,273.0232,89.3254,270.7839,-3.7619e-05,-2.584e-05,0.0,0 STARLINK-5231,1 54182U 22141AB  23056.05643925 -.00002584  00000-0 -37619-4 0  9991,2 54182  53.2173 273.0232 0000728  89.3254 270.7839 15.49876328 19111,6795.225,92.911,417.584,416.595,0.0
54182.0,STARLINK-5231,PAYLOAD,2023-02-25 18:22:41,15.49885621,5.41e-05,53.2175,269.6336,79.3265,280.7806,2.0973e-05,7.4e-06,0.0,0 STARLINK-5231,1 54182U 22141AB  23056.76575843  .00000740  00000-0  20973-4 0  9997,2 54182  53.2175 269.6336 0000541  79.3265 280.7806 15.49885621 19226,6795.197,92.91,417.43,416.695,0.0
54182.0,STARLINK-5231,PAYLOAD,2023-02-25 19:55:32,15.49886659,6.18e-05,53.2172,269.3246,86.3796,273.7285,3.236e-05,1.386e-05,0.0,0 STARLINK-5231,1 54182U 22141AB  23056.83024108  .00001386  00000-0  32360-4 0  9998,2 54182  53.2172 269.3246 0000618  86.3796 273.7285 15.49886659 19003,6795.194,92.91,417.479,416.639,0.0
54182.0,STARLINK-5231,PAYLOAD,2023-02-26 00:34:06,15.4989581,6.47e-05,53.2175,268.4001,92.7149,267.3935,5.1684e-05,2.485e-05,0.0,0 STARLINK-5231,1 54182U 22141AB  23057.02368651  .00002485  00000-0  51684-4 0  9995,2 54182  53.2175 268.4001 0000647  92.7149 267.3935 15.49895810 19268,6795.168,92.909,417.472,416.593,0.0
54182.0,STARLINK-5231,PAYLOAD,2023-02-26 17:36:34,15.49137538,5.84e-05,53.2182,265.0166,55.084,305.0224,-0.0016611,-0.00091203,0.0,0 STARLINK-5231,1 54182U 22141AB  23057.73373769 -.00091203  00000-0 -16611-2 0  9996,2 54182  53.2182 265.0166 0000584  55.0840 305.0224 15.49137538 19370,6797.385,92.955,419.647,418.853,0.0
54182.0,STARLINK-5231,PAYLOAD,2023-02-26 20:42:33,15.48987733,3.45e-05,53.2173,264.4002,36.5035,323.5998,-0.0019612,-0.00106822,0.0,0 STARLINK-5231,1 54182U 22141AB  23057.86288600 -.00106822  00000-0 -19612-2 0  9997,2 54182  53.2173 264.4002 0000345  36.5035 323.5998 15.48987733 19166,6797.823,92.964,419.923,419.454,0.0
54182.0,STARLINK-5231,PAYLOAD,2023-02-27 06:00:00,15.4726262,6.44e-05,53.2155,262.5501,87.4352,273.5807,-0.025146,-0.01186791,0.0,0 STARLINK-5231,1 54182U 22141AB  23058.25001157 -.01186791  00000-0 -25146-1 0  9993,2 54182  53.2155 262.5501 0000644  87.4352 273.5807 15.47262620 19453,6802.875,93.068,425.178,424.302,0.0
54182.0,STARLINK-5231,PAYLOAD,2023-02-27 14:00:01,15.46439507,7.73e-05,53.2157,260.9636,93.3899,324.8621,-0.025121,-0.01155072,0.0,0 STARLINK-5231,1 54182U 22141AB  23058.58334491 -.01155072  00000-0 -25121-1 0  9990,2 54182  53.2157 260.9636 0000773  93.3899 324.8621 15.46439507  1309,6805.289,93.117,427.68,426.628,0.0
54182.0,STARLINK-5231,PAYLOAD,2023-02-27 22:00:01,15.45609059,9.77e-05,53.2159,259.3819,74.1309,40.4521,-0.025302,-0.0113252,0.0,0 STARLINK-5231,1 54182U 22141AB  23058.91668981 -.01132520  00000-0 -25302-1 0  9995,2 54182  53.2159 259.3819 0000977  74.1309  40.4521 15.45609059 19551,6807.726,93.167,430.256,428.926,0.0
54182.0,STARLINK-5231,PAYLOAD,2023-02-28 14:00:01,15.44002961,0.000112,53.2161,256.2184,91.6192,132.4808,-0.027512,-0.01162594,0.0,0 STARLINK-5231,1 54182U 22141AB  23059.58334491 -.01162594  00000-0 -27512-1 0  9994,2 54182  53.2161 256.2184 0001120  91.6192 132.4808 15.44002961 19660,6812.446,93.264,435.074,433.548,0.0
54182.0,STARLINK-5231,PAYLOAD,2023-02-28 22:00:00,15.43158253,0.0001113,53.216,254.6423,75.5752,201.8631,-0.027023,-0.01113935,0.0,0 STARLINK-5231,1 54182U 22141AB  23059.91667824 -.01113935  00000-0 -27023-1 0  9992,2 54182  53.2160 254.6423 0001113  75.5752 201.8631 15.43158253  1304,6814.932,93.315,437.556,436.039,0.0
54182.0,STARLINK-5231,PAYLOAD,2023-03-01 14:00:01,15.41568209,8.56e-05,53.2156,251.4907,83.4494,297.6977,-0.030132,-0.01171624,0.0,0 STARLINK-5231,1 54182U 22141AB  23060.58334491 -.01171624  00000-0 -30132-1 0  9992,2 54182  53.2156 251.4907 0000856  83.4494 297.6977 15.41568209 19810,6819.617,93.411,442.066,440.899,0.0
54182.0,STARLINK-5231,PAYLOAD,2023-03-02 00:00:00,15.40517242,0.0001192,53.215,249.5275,72.4404,101.5587,-0.0296,-0.01116284,0.0,0 STARLINK-5231,1 54182U 22141AB  23061.00001157 -.01116284  00000-0 -29600-1 0  9999,2 54182  53.2150 249.5275 0001192  72.4404 101.5587 15.40517242  1308,6822.719,93.475,445.397,443.77,0.0
54182.0,STARLINK-5231,PAYLOAD,2023-03-02 20:00:01,15.38485584,0.0001127,53.2145,245.6068,76.998,38.0985,-0.032074,-0.01129668,0.0,0 STARLINK-5231,1 54182U 22141AB  23061.83334491 -.01129668  00000-0 -32074-1 0  9999,2 54182  53.2145 245.6068 0001127  76.9980  38.0985 15.38485584 20009,6828.724,93.599,451.359,449.819,0.0
54182.0,STARLINK-5231,PAYLOAD,2023-03-03 14:00:01,15.36679583,9.24e-05,53.2143,242.0871,96.5001,212.3498,-0.035195,-0.01165088,0.0,0 STARLINK-5231,1 54182U 22141AB  23062.58334491 -.01165088  00000-0 -35195-1 0  9995,2 54182  53.2143 242.0871 0000924  96.5001 212.3498 15.36679583 20127,6834.073,93.709,456.57,455.307,0.0
54182.0,STARLINK-5231,PAYLOAD,2023-03-03 22:00:00,15.35822624,9.25e-05,53.214,240.5281,82.1818,271.2087,-0.03373,-0.01092529,0.0,0 STARLINK-5231,1 54182U 22141AB  23062.91667824 -.01092529  00000-0 -33730-1 0  9993,2 54182  53.2140 240.5281 0000925  82.1818 271.2087 15.35822624  1302,6836.615,93.761,459.113,457.848,0.0
54182.0,STARLINK-5231,PAYLOAD,2023-03-04 14:00:01,15.34241834,8.28e-05,53.214,237.4111,92.963,346.5348,-0.038403,-0.0117428,0.0,0 STARLINK-5231,1 54182U 22141AB  23063.58334491 -.01174280  00000-0 -38403-1 0  9995,2 54182  53.2140 237.4111 0000828  92.9630 346.5348 15.34241834  1305,6841.31,93.857,463.742,462.609,0.0
54182.0,STARLINK-5231,PAYLOAD,2023-03-04 22:00:00,15.33375265,9.8e-05,53.214,235.8577,75.8762,45.2308,-0.035995,-0.01079159,0.0,0 STARLINK-5231,1 54182U 22141AB  23063.91667824 -.01079159  00000-0 -35995-1 0  9993,2 54182  53.2140 235.8577 0000980  75.8762  45.2308 15.33375265 20325,6843.888,93.91,466.423,465.082,0.0
54182.0,STARLINK-5231,PAYLOAD,2023-03-05 04:00:01,15.32815506,8.08e-05,53.2141,234.6914,86.6906,335.0234,-0.040416,-0.01180358,0.0,0 STARLINK-5231,1 54182U 22141AB  23064.16668981 -.01180358  00000-0 -40416-1 0  9994,2 54182  53.2141 234.6914 0000808  86.6906 335.0234 15.32815506 20365,6845.554,93.945,467.972,466.866,0.0
54182.0,STARLINK-5231,PAYLOAD,2023-03-05 14:00:01,15.31790925,0.0001044,53.2143,232.7524,88.8107,112.538,-0.040958,-0.01160106,0.0,0 STARLINK-5231,1 54182U 22141AB  23064.58334491 -.01160106  00000-0 -40958-1 0  9996,2 54182  53.2143 232.7524 0001044  88.8107 112.5380 15.31790925  1302,6848.606,94.008,471.186,469.756,0.0
54182.0,STARLINK-5231,PAYLOAD,2023-03-05 22:00:00,15.3094272,0.0001002,53.2144,231.2046,78.3763,161.6397,-0.039314,-0.0109057,0.0,0 STARLINK-5231,1 54182U 22141AB  23064.91667824 -.01090570  00000-0 -39314-1 0  9993,2 54182  53.2144 231.2046 0001002  78.3763 161.6397 15.30942720 20486,6851.135,94.06,473.687,472.314,0.0
54182.0,STARLINK-5231,PAYLOAD,2023-03-06 06:00:00,15.30121394,9.06e-05,53.2148,229.6555,85.4951,192.2122,-0.04047,-0.01093886,0.0,0 STARLINK-5231,1 54182U 22141AB  23065.25001157 -.01093886  00000-0 -40470-1 0  9990,2 54182  53.2148 229.6555 0000906  85.4951 192.2122 15.30121394 20534,6853.587,94.11,476.073,474.831,0.0
54182.0,STARLINK-5231,PAYLOAD,2023-03-06 22:00:00,15.28508821,8.78e-05,53.2151,226.5688,69.6978,280.4297,-0.042928,-0.01102916,0.0,0 STARLINK-5231,1 54182U 22141AB  23065.91667824 -.01102916  00000-0 -42928-1 0  9997,2 54182  53.2151 226.5688 0000878  69.6978 280.4297 15.28508821  1300,6858.406,94.209,480.873,479.669,0.0
54182.0,STARLINK-5231,PAYLOAD,2023-03-07 06:00:00,15.27674802,8e-05,53.2154,225.0254,81.9635,302.9252,-0.04323,-0.01084225,0.0,0 STARLINK-5231,1 54182U 22141AB  23066.25001157 -.01084225  00000-0 -43230-1 0  9995,2 54182  53.2154 225.0254 0000800  81.9635 302.9252 15.27674802 20683,6860.902,94.261,483.316,482.218,0.0
54182.0,STARLINK-5231,PAYLOAD,2023-03-07 22:00:00,15.26070508,0.0001045,53.2158,221.9502,61.9863,29.4525,-0.046449,-0.01107179,0.0,0 STARLINK-5231,1 54182U 22141AB  23066.91667824 -.01107179  00000-0 -46449-1 0  9996,2 54182  53.2158 221.9502 0001045  61.9863  29.4525 15.26070508 20788,6865.71,94.36,488.292,486.857,0.0
54182.0,STARLINK-5231,PAYLOAD,2023-03-08 14:00:01,15.2446744,0.0001121,53.2166,218.8798,80.2347,73.8541,-0.051593,-0.01181793,0.0,0 STARLINK-5231,1 54182U 22141AB  23067.58334491 -.01181793  00000-0 -51593-1 0  9991,2 54182  53.2166 218.8798 0001121  80.2347  73.8541 15.24467440 20880,6870.522,94.459,493.157,491.617,0.0
